[{"OBJECT_NAME":"STARLINK-36123","OBJECT_ID":"2025-293E","EPOCH":"2026-03-09T16:00:03.000096","MEAN_MOTION":14.98362037,"ECCENTRICITY":0.0003577,"INCLINATION":69.9998,"RA_OF_ASC_NODE":94.4135,"ARG_OF_PERICENTER":276.095,"MEAN_ANOMALY":201.5645,"EPHEMERIS_TYPE":0,"CLASSIFICATION_TYPE":"U","NORAD_CAT_ID":67007,"ELEMENT_SET_NO":999,"REV_AT_EPOCH":578,"BSTAR":-0.0036852177,"MEAN_MOTION_DOT":-0.00043829,"MEAN_MOTION_DDOT":0},{"OBJECT_NAME":"COSMOS 886 DEB","OBJECT_ID":"1976-126L","EPOCH":"2026-03-09T22:41:55.695264","MEAN_MOTION":13.46196223,"ECCENTRICITY":0.06931342,"INCLINATION":65.7696,"RA_OF_ASC_NODE":305.7755,"ARG_OF_PERICENTER":147.7689,"MEAN_ANOMALY":216.7756,"EPHEMERIS_TYPE":0,"CLASSIFICATION_TYPE":"U","NORAD_CAT_ID":9654,"ELEMENT_SET_NO":999,"REV_AT_EPOCH":34413,"BSTAR":0.0014102105,"MEAN_MOTION_DOT":3.712e-5,"MEAN_MOTION_DDOT":0}]
